TITAN 3C TRANSTAGE R/B  
1 05589U 71095C   26064.26278395 -.00000240  00000+0  00000+0 0  9994
2 05589   3.5561 274.6225 0165996 184.0603 341.9829  0.97189244118410
INTELSAT 4-F3           
1 05709U 71116A   26063.73891144 -.00000029  00000+0  00000+0 0  9991
2 05709   6.6485 291.7766 0010655 109.6584  41.8876  0.99624859117836
INTELSAT 4-F4           
1 05775U 72003A   26063.00730351 -.00000288  00000+0  00000+0 0  9999
2 05775   6.9923 295.2440 0001954  80.2518 113.4742  0.99835635136341
ATLAS CENTAUR R/B       
1 05816U 72003B   26064.11130830 -.00000173  00000+0  83620-3 0  9990
2 05816  28.5894 350.5282 7187743 207.5054 351.6584  2.20979931436055
OPS 1570 (DSP 3)        
1 05851U 72010A   26064.22612378 -.00000116  00000+0  00000+0 0  9995
2 05851   0.1603 121.6376 0010676 165.2154 315.0022  0.99783383 24897
TITAN 3C TRANSTAGE R/B  
1 05854U 72010B   26063.38469816 -.00000046  00000+0  00000+0 0  9993
2 05854   0.6587  96.8764 0063363 330.4622 293.2948  1.00678321 23854
INTELSAT 4-F5           
1 06052U 72041A   26063.68700846  .00000024  00000+0  00000+0 0  9997
2 06052   5.9868 287.8106 0003536 326.4865  33.3347  1.00094001 45618
ATLAS CENTAUR R/B       
1 06058U 72041B   26063.84937819  .00000134  00000+0  12833-2 0  9995
2 06058  26.4994 269.2283 7224588  38.6950 355.5092  2.22593168435070
OPS 9390                
1 06317U 72101A   26064.06267204 -.00000023  00000+0  00000+0 0  9997
2 06317   9.3203 236.9420 1234002 108.1631 257.6047  1.00379356 24465
ATLAS AGENA R/B         
1 06318U 72101B   26063.46511861 -.00000273  00000+0  00000+0 0  9999
2 06318   8.8191 225.2084 1237345 183.2953 175.5811  1.02316773 26259
OPS 6063                
1 06380U 73013A   26064.18169902 -.00000106  00000+0  00000+0 0  9991
2 06380   0.6061 250.4713 0012407 285.6865 128.1519  1.00274969 25381
ANIK A2 (TELESAT 2)     
1 06437U 73023A   26064.26469061  .00000030  00000+0  00000+0 0  9998
2 06437   7.1721 296.7123 0011832  66.0844  87.1851  0.99802873 46111
OPS 6157 (DSP 4)        
1 06691U 73040A   26063.54766951 -.00000076  00000+0  00000+0 0  9998
2 06691   1.1220 232.6247 0008772  62.3035 240.1328  0.99829277 24895
ATLAS CENTAUR R/B       
1 06779U 71116B   26064.15241808 -.00000127  00000+0  12651-2 0  9999
2 06779  28.1385  55.5025 7175124  93.7707 343.3654  2.19673417413174
OPS 7724                
1 06791U 73056A   26063.96174961 -.00000337  00000+0 -67092-3 0  9995
2 06791  62.5826  40.4570 7327679 279.9186  11.6173  2.00594351 47523
ATLAS CENTAUR R/B       
1 06797U 73058B   26063.91393530  .00000290  00000+0  13148-2 0  9991
2 06797  27.1333 221.0872 7239961 234.6957  35.3474  2.21921811425010
COSMOS 637              
1 07229U 74017A   26064.26278395  .00000104  00000+0  00000+0 0  9992
2 07229   1.0913 256.6556 0039146  72.4807 110.3720  1.00772992121153
