[{"OBJECT_NAME":"TITAN 3C TRANSTAGE R/B","OBJECT_ID":"1971-095C","EPOCH":"2026-03-05T06:18:24.533280","MEAN_MOTION":0.97189244,"ECCENTRICITY":0.0165996,"INCLINATION":3.5561,"RA_OF_ASC_NODE":274.6225,"ARG_OF_PERICENTER":184.0603,"MEAN_ANOMALY":341.9829,"EPHEMERIS_TYPE":0,"CLASSIFICATION_TYPE":"U","NORAD_CAT_ID":5589,"ELEMENT_SET_NO":999,"REV_AT_EPOCH":11841,"BSTAR":0,"MEAN_MOTION_DOT":-2.4e-6,"MEAN_MOTION_DDOT":0},{"OBJECT_NAME":"INTELSAT 4-F3","OBJECT_ID":"1971-116A","EPOCH":"2026-03-04T17:44:01.948416","MEAN_MOTION":0.99624859,"ECCENTRICITY":0.00106559,"INCLINATION":6.6485,"RA_OF_ASC_NODE":291.7766,"ARG_OF_PERICENTER":109.6584,"MEAN_ANOMALY":41.8876,"EPHEMERIS_TYPE":0,"CLASSIFICATION_TYPE":"U","NORAD_CAT_ID":5709,"ELEMENT_SET_NO":999,"REV_AT_EPOCH":11783,"BSTAR":0,"MEAN_MOTION_DOT":-2.9e-7,"MEAN_MOTION_DDOT":0},{"OBJECT_NAME":"INTELSAT 4-F4","OBJECT_ID":"1972-003A","EPOCH":"2026-03-04T00:10:31.023264","MEAN_MOTION":0.99835635,"ECCENTRICITY":0.00019544,"INCLINATION":6.9923,"RA_OF_ASC_NODE":295.244,"ARG_OF_PERICENTER":80.2518,"MEAN_ANOMALY":113.4742,"EPHEMERIS_TYPE":0,"CLASSIFICATION_TYPE":"U","NORAD_CAT_ID":5775,"ELEMENT_SET_NO":999,"REV_AT_EPOCH":13634,"BSTAR":0,"MEAN_MOTION_DOT":-2.88e-6,"MEAN_MOTION_DDOT":0},{"OBJECT_NAME":"ATLAS CENTAUR R/B","OBJECT_ID":"1972-003B","EPOCH":"2026-03-05T02:40:17.037120","MEAN_MOTION":2.20979931,"ECCENTRICITY":0.71877432,"INCLINATION":28.5894,"RA_OF_ASC_NODE":350.5282,"ARG_OF_PERICENTER":207.5054,"MEAN_ANOMALY":351.6584,"EPHEMERIS_TYPE":0,"CLASSIFICATION_TYPE":"U","NORAD_CAT_ID":5816,"ELEMENT_SET_NO":999,"REV_AT_EPOCH":43605,"BSTAR":0.00083619861,"MEAN_MOTION_DOT":-1.73e-6,"MEAN_MOTION_DDOT":0},{"OBJECT_NAME":"OPS 1570 (DSP 3)","OBJECT_ID":"1972-010A","EPOCH":"2026-03-05T05:25:37.094592","MEAN_MOTION":0.99783383,"ECCENTRICITY":0.00106761,"INCLINATION":0.1603,"RA_OF_ASC_NODE":121.6376,"ARG_OF_PERICENTER":165.2154,"MEAN_ANOMALY":315.0022,"EPHEMERIS_TYPE":0,"CLASSIFICATION_TYPE":"U","NORAD_CAT_ID":5851,"ELEMENT_SET_NO":999,"REV_AT_EPOCH":2489,"BSTAR":0,"MEAN_MOTION_DOT":-1.16e-6,"MEAN_MOTION_DDOT":0},{"OBJECT_NAME":"TITAN 3C TRANSTAGE R/B","OBJECT_ID":"1972-010B","EPOCH":"2026-03-04T09:13:57.921024","MEAN_MOTION":1.00678321,"ECCENTRICITY":0.00633635,"INCLINATION":0.6587,"RA_OF_ASC_NODE":96.8764,"ARG_OF_PERICENTER":330.4622,"MEAN_ANOMALY":293.2948,"EPHEMERIS_TYPE":0,"CLASSIFICATION_TYPE":"U","NORAD_CAT_ID":5854,"ELEMENT_SET_NO":999,"REV_AT_EPOCH":2385,"BSTAR":0,"MEAN_MOTION_DOT":-4.6e-7,"MEAN_MOTION_DDOT":0},{"OBJECT_NAME":"INTELSAT 4-F5","OBJECT_ID":"1972-041A","EPOCH":"2026-03-04T16:29:17.530944","MEAN_MOTION":1.00094001,"ECCENTRICITY":0.00035363,"INCLINATION":5.9868,"RA_OF_ASC_NODE":287.8106,"ARG_OF_PERICENTER":326.4865,"MEAN_ANOMALY":33.3347,"EPHEMERIS_TYPE":0,"CLASSIFICATION_TYPE":"U","NORAD_CAT_ID":6052,"ELEMENT_SET_NO":999,"REV_AT_EPOCH":4561,"BSTAR":0,"MEAN_MOTION_DOT":2.4e-7,"MEAN_MOTION_DDOT":0},{"OBJECT_NAME":"ATLAS CENTAUR R/B","OBJECT_ID":"1972-041B","EPOCH":"2026-03-04T20:23:06.275616","MEAN_MOTION":2.22593168,"ECCENTRICITY":0.72245889,"INCLINATION":26.4994,"RA_OF_ASC_NODE":269.2283,"ARG_OF_PERICENTER":38.695,"MEAN_ANOMALY":355.5092,"EPHEMERIS_TYPE":0,"CLASSIFICATION_TYPE":"U","NORAD_CAT_ID":6058,"ELEMENT_SET_NO":999,"REV_AT_EPOCH":43507,"BSTAR":0.0012832549,"MEAN_MOTION_DOT":1.34e-6,"MEAN_MOTION_DDOT":0},{"OBJECT_NAME":"OPS 9390","OBJECT_ID":"1972-101A","EPOCH":"2026-03-05T01:30:14.864256","MEAN_MOTION":1.00379356,"ECCENTRICITY":0.12340029,"INCLINATION":9.3203,"RA_OF_ASC_NODE":236.942,"ARG_OF_PERICENTER":108.1631,"MEAN_ANOMALY":257.6047,"EPHEMERIS_TYPE":0,"CLASSIFICATION_TYPE":"U","NORAD_CAT_ID":6317,"ELEMENT_SET_NO":999,"REV_AT_EPOCH":2446,"BSTAR":0,"MEAN_MOTION_DOT":-2.3e-7,"MEAN_MOTION_DDOT":0},{"OBJECT_NAME":"ATLAS AGENA R/B","OBJECT_ID":"1972-101B","EPOCH":"2026-03-04T11:09:46.247904","MEAN_MOTION":1.02316773,"ECCENTRICITY":0.1237345,"INCLINATION":8.8191,"RA_OF_ASC_NODE":225.2084,"ARG_OF_PERICENTER":183.2953,"MEAN_ANOMALY":175.5811,"EPHEMERIS_TYPE":0,"CLASSIFICATION_TYPE":"U","NORAD_CAT_ID":6318,"ELEMENT_SET_NO":999,"REV_AT_EPOCH":2625,"BSTAR":0,"MEAN_MOTION_DOT":-2.73e-6,"MEAN_MOTION_DDOT":0},{"OBJECT_NAME":"OPS 6063","OBJECT_ID":"1973-013A","EPOCH":"2026-03-05T04:21:38.795328","MEAN_MOTION":1.00274969,"ECCENTRICITY":0.00124072,"INCLINATION":0.6061,"RA_OF_ASC_NODE":250.4713,"ARG_OF_PERICENTER":285.6865,"MEAN_ANOMALY":128.1519,"EPHEMERIS_TYPE":0,"CLASSIFICATION_TYPE":"U","NORAD_CAT_ID":6380,"ELEMENT_SET_NO":999,"REV_AT_EPOCH":2538,"BSTAR":0,"MEAN_MOTION_DOT":-1.06e-6,"MEAN_MOTION_DDOT":0},{"OBJECT_NAME":"ANIK A2 (TELESAT 2)","OBJECT_ID":"1973-023A","EPOCH":"2026-03-05T06:21:09.268704","MEAN_MOTION":0.99802873,"ECCENTRICITY":0.00118327,"INCLINATION":7.1721,"RA_OF_ASC_NODE":296.7123,"ARG_OF_PERICENTER":66.0844,"MEAN_ANOMALY":87.1851,"EPHEMERIS_TYPE":0,"CLASSIFICATION_TYPE":"U","NORAD_CAT_ID":6437,"ELEMENT_SET_NO":999,"REV_AT_EPOCH":4611,"BSTAR":0,"MEAN_MOTION_DOT":3.0e-7,"MEAN_MOTION_DDOT":0},{"OBJECT_NAME":"OPS 6157 (DSP 4)","OBJECT_ID":"1973-040A","EPOCH":"2026-03-04T13:08:38.645664","MEAN_MOTION":0.99829277,"ECCENTRICITY":0.0008772,"INCLINATION":1.122,"RA_OF_ASC_NODE":232.6247,"ARG_OF_PERICENTER":62.3035,"MEAN_ANOMALY":240.1328,"EPHEMERIS_TYPE":0,"CLASSIFICATION_TYPE":"U","NORAD_CAT_ID":6691,"ELEMENT_SET_NO":999,"REV_AT_EPOCH":2489,"BSTAR":0,"MEAN_MOTION_DOT":-7.6e-7,"MEAN_MOTION_DDOT":0},{"OBJECT_NAME":"ATLAS CENTAUR R/B","OBJECT_ID":"1971-116B","EPOCH":"2026-03-05T03:39:28.922112","MEAN_MOTION":2.19673417,"ECCENTRICITY":0.71751241,"INCLINATION":28.1385,"RA_OF_ASC_NODE":55.5025,"ARG_OF_PERICENTER":93.7707,"MEAN_ANOMALY":343.3654,"EPHEMERIS_TYPE":0,"CLASSIFICATION_TYPE":"U","NORAD_CAT_ID":6779,"ELEMENT_SET_NO":999,"REV_AT_EPOCH":41317,"BSTAR":0.0012651367,"MEAN_MOTION_DOT":-1.27e-6,"MEAN_MOTION_DDOT":0},{"OBJECT_NAME":"OPS 7724","OBJECT_ID":"1973-056A","EPOCH":"2026-03-04T23:04:55.166304","MEAN_MOTION":2.00594351,"ECCENTRICITY":0.7327679,"INCLINATION":62.5826,"RA_OF_ASC_NODE":40.457,"ARG_OF_PERICENTER":279.9186,"MEAN_ANOMALY":11.6173,"EPHEMERIS_TYPE":0,"CLASSIFICATION_TYPE":"U","NORAD_CAT_ID":6791,"ELEMENT_SET_NO":999,"REV_AT_EPOCH":4752,"BSTAR":-0.00067091696,"MEAN_MOTION_DOT":-3.37e-6,"MEAN_MOTION_DDOT":0},{"OBJECT_NAME":"ATLAS CENTAUR R/B","OBJECT_ID":"1973-058B","EPOCH":"2026-03-04T21:56:04.009920","MEAN_MOTION":2.21921811,"ECCENTRICITY":0.72399612,"INCLINATION":27.1333,"RA_OF_ASC_NODE":221.0872,"ARG_OF_PERICENTER":234.6957,"MEAN_ANOMALY":35.3474,"EPHEMERIS_TYPE":0,"CLASSIFICATION_TYPE":"U","NORAD_CAT_ID":6797,"ELEMENT_SET_NO":999,"REV_AT_EPOCH":42501,"BSTAR":0.0013148232,"MEAN_MOTION_DOT":2.9e-6,"MEAN_MOTION_DDOT":0},{"OBJECT_NAME":"COSMOS 637","OBJECT_ID":"1974-017A","EPOCH":"2026-03-05T06:18:24.533280","MEAN_MOTION":1.00772992,"ECCENTRICITY":0.00391467,"INCLINATION":1.0913,"RA_OF_ASC_NODE":256.6556,"ARG_OF_PERICENTER":72.4807,"MEAN_ANOMALY":110.372,"EPHEMERIS_TYPE":0,"CLASSIFICATION_TYPE":"U","NORAD_CAT_ID":7229,"ELEMENT_SET_NO":999,"REV_AT_EPOCH":12115,"BSTAR":0,"MEAN_MOTION_DOT":1.04e-6,"MEAN_MOTION_DDOT":0}]
